{"fetched_at":"2026-03-29T16:36:15Z","count":15609,"tles":[{"name":"STARLINK-35419","line1":"1 66559U 25268C   26087.81430287  .00027054  00000+0  98811-3 0  9997","line2":"2 66559  43.0024 239.1417 0001495 264.8247  95.2434 15.27611074 20884","category":"Starlink"}]}